CCSDS_OMM_VERS = 2.0
CREATION_DATE  = 
ORIGINATOR     = 

OBJECT_NAME    = SL-16 R/B
OBJECT_ID      = 1998-045B
CENTER_NAME    = EARTH
REF_FRAME      = TEME
TIME_SYSTEM    = UTC
MEAN_ELEMENT_THEORY = SGP/SGP4

EPOCH          = 2026-03-12T16:20:41.500896
MEAN_MOTION    = 14.16191601
ECCENTRICITY   = .0006932
INCLINATION    = 71.0120
RA_OF_ASC_NODE = 175.2837
ARG_OF_PERICENTER = 3.5595
MEAN_ANOMALY   = 356.5576

EPHEMERIS_TYPE = 0
CLASSIFICATION_TYPE = U
NORAD_CAT_ID   = 25407
ELEMENT_SET_NO = 999
REV_AT_EPOCH   = 42752
BSTAR          = .17402E-3
MEAN_MOTION_DOT = .297E-5
MEAN_MOTION_DDOT = 0

CCSDS_OMM_VERS = 2.0
CREATION_DATE  = 
ORIGINATOR     = 

OBJECT_NAME    = ISS (ZARYA)
OBJECT_ID      = 1998-067A
CENTER_NAME    = EARTH
REF_FRAME      = TEME
TIME_SYSTEM    = UTC
MEAN_ELEMENT_THEORY = SGP/SGP4

EPOCH          = 2026-03-12T14:39:41.220864
MEAN_MOTION    = 15.48604404
ECCENTRICITY   = .0007968
INCLINATION    = 51.6325
RA_OF_ASC_NODE = 57.9128
ARG_OF_PERICENTER = 184.9992
MEAN_ANOMALY   = 175.0918

EPHEMERIS_TYPE = 0
CLASSIFICATION_TYPE = U
NORAD_CAT_ID   = 25544
ELEMENT_SET_NO = 999
REV_AT_EPOCH   = 55678
BSTAR          = .17507E-3
MEAN_MOTION_DOT = .9081E-4
MEAN_MOTION_DDOT = 0

CCSDS_OMM_VERS = 2.0
CREATION_DATE  = 
ORIGINATOR     = 

OBJECT_NAME    = CZ-4B R/B
OBJECT_ID      = 1999-025C
CENTER_NAME    = EARTH
REF_FRAME      = TEME
TIME_SYSTEM    = UTC
MEAN_ELEMENT_THEORY = SGP/SGP4

EPOCH          = 2026-03-12T15:19:21.044928
MEAN_MOTION    = 14.18265985
ECCENTRICITY   = .0036592
INCLINATION    = 98.6621
RA_OF_ASC_NODE = 115.8501
ARG_OF_PERICENTER = 338.0096
MEAN_ANOMALY   = 133.9497

EPHEMERIS_TYPE = 0
CLASSIFICATION_TYPE = U
NORAD_CAT_ID   = 25732
ELEMENT_SET_NO = 999
REV_AT_EPOCH   = 38858
BSTAR          = .46771E-4
MEAN_MOTION_DOT = .54E-6
MEAN_MOTION_DDOT = 0

CCSDS_OMM_VERS = 2.0
CREATION_DATE  = 
ORIGINATOR     = 

OBJECT_NAME    = OKEAN-O
OBJECT_ID      = 1999-039A
CENTER_NAME    = EARTH
REF_FRAME      = TEME
TIME_SYSTEM    = UTC
MEAN_ELEMENT_THEORY = SGP/SGP4

EPOCH          = 2026-03-12T15:01:33.112416
MEAN_MOTION    = 14.80341084
ECCENTRICITY   = .0001167
INCLINATION    = 97.9435
RA_OF_ASC_NODE = 131.4876
ARG_OF_PERICENTER = 70.7186
MEAN_ANOMALY   = 289.4152

EPHEMERIS_TYPE = 0
CLASSIFICATION_TYPE = U
NORAD_CAT_ID   = 25860
ELEMENT_SET_NO = 999
REV_AT_EPOCH   = 43482
BSTAR          = .12103E-3
MEAN_MOTION_DOT = .871E-5
MEAN_MOTION_DDOT = 0

CCSDS_OMM_VERS = 2.0
CREATION_DATE  = 
ORIGINATOR     = 

OBJECT_NAME    = SL-16 R/B
OBJECT_ID      = 1999-039B
CENTER_NAME    = EARTH
REF_FRAME      = TEME
TIME_SYSTEM    = UTC
MEAN_ELEMENT_THEORY = SGP/SGP4

EPOCH          = 2026-03-12T14:28:34.378752
MEAN_MOTION    = 14.81736426
ECCENTRICITY   = .0013593
INCLINATION    = 97.9961
RA_OF_ASC_NODE = 130.6957
ARG_OF_PERICENTER = 245.6497
MEAN_ANOMALY   = 114.3296

EPHEMERIS_TYPE = 0
CLASSIFICATION_TYPE = U
NORAD_CAT_ID   = 25861
ELEMENT_SET_NO = 999
REV_AT_EPOCH   = 43729
BSTAR          = .9968E-4
MEAN_MOTION_DOT = .733E-5
MEAN_MOTION_DDOT = 0

CCSDS_OMM_VERS = 2.0
CREATION_DATE  = 
ORIGINATOR     = 

OBJECT_NAME    = DELTA 2 R/B
OBJECT_ID      = 1999-041E
CENTER_NAME    = EARTH
REF_FRAME      = TEME
TIME_SYSTEM    = UTC
MEAN_ELEMENT_THEORY = SGP/SGP4

EPOCH          = 2026-03-12T13:21:32.963328
MEAN_MOTION    = 14.11847454
ECCENTRICITY   = .0502445
INCLINATION    = 51.7625
RA_OF_ASC_NODE = 289.8292
ARG_OF_PERICENTER = 356.8855
MEAN_ANOMALY   = 2.8986

EPHEMERIS_TYPE = 0
CLASSIFICATION_TYPE = U
NORAD_CAT_ID   = 25876
ELEMENT_SET_NO = 999
REV_AT_EPOCH   = 36343
BSTAR          = .26782E-3
MEAN_MOTION_DOT = .1427E-4
MEAN_MOTION_DDOT = 0

CCSDS_OMM_VERS = 2.0
CREATION_DATE  = 
ORIGINATOR     = 

OBJECT_NAME    = HELIOS 1B
OBJECT_ID      = 1999-064A
CENTER_NAME    = EARTH
REF_FRAME      = TEME
TIME_SYSTEM    = UTC
MEAN_ELEMENT_THEORY = SGP/SGP4

EPOCH          = 2026-03-12T16:09:26.907840
MEAN_MOTION    = 14.87712862
ECCENTRICITY   = .0002427
INCLINATION    = 98.1685
RA_OF_ASC_NODE = 334.0039
ARG_OF_PERICENTER = 71.3671
MEAN_ANOMALY   = 288.7808

EPHEMERIS_TYPE = 0
CLASSIFICATION_TYPE = U
NORAD_CAT_ID   = 25977
ELEMENT_SET_NO = 999
REV_AT_EPOCH   = 68570
BSTAR          = .26522E-3
MEAN_MOTION_DOT = .2359E-4
MEAN_MOTION_DDOT = 0

CCSDS_OMM_VERS = 2.0
CREATION_DATE  = 
ORIGINATOR     = 

OBJECT_NAME    = TERRA
OBJECT_ID      = 1999-068A
CENTER_NAME    = EARTH
REF_FRAME      = TEME
TIME_SYSTEM    = UTC
MEAN_ELEMENT_THEORY = SGP/SGP4

EPOCH          = 2026-03-12T16:00:43.913952
MEAN_MOTION    = 14.61018426
ECCENTRICITY   = .0002876
INCLINATION    = 97.9588
RA_OF_ASC_NODE = 124.9881
ARG_OF_PERICENTER = 144.7271
MEAN_ANOMALY   = 313.2913

EPHEMERIS_TYPE = 0
CLASSIFICATION_TYPE = U
NORAD_CAT_ID   = 25994
ELEMENT_SET_NO = 999
REV_AT_EPOCH   = 39551
BSTAR          = .11893E-3
MEAN_MOTION_DOT = .539E-5
MEAN_MOTION_DDOT = 0

CCSDS_OMM_VERS = 2.0
CREATION_DATE  = 
ORIGINATOR     = 

OBJECT_NAME    = SL-16 R/B
OBJECT_ID      = 2000-006B
CENTER_NAME    = EARTH
REF_FRAME      = TEME
TIME_SYSTEM    = UTC
MEAN_ELEMENT_THEORY = SGP/SGP4

EPOCH          = 2026-03-12T11:38:47.085216
MEAN_MOTION    = 14.15825371
ECCENTRICITY   = .0016616
INCLINATION    = 71.0006
RA_OF_ASC_NODE = 91.9589
ARG_OF_PERICENTER = 186.1025
MEAN_ANOMALY   = 173.9898

EPHEMERIS_TYPE = 0
CLASSIFICATION_TYPE = U
NORAD_CAT_ID   = 26070
ELEMENT_SET_NO = 999
REV_AT_EPOCH   = 34895
BSTAR          = -.61237E-4
MEAN_MOTION_DOT = -.168E-5
MEAN_MOTION_DDOT = 0

CCSDS_OMM_VERS = 2.0
CREATION_DATE  = 
ORIGINATOR     = 

OBJECT_NAME    = TITAN 4B R/B
OBJECT_ID      = 2000-047B
CENTER_NAME    = EARTH
REF_FRAME      = TEME
TIME_SYSTEM    = UTC
MEAN_ELEMENT_THEORY = SGP/SGP4

EPOCH          = 2026-03-12T14:41:05.567136
MEAN_MOTION    = 15.09595648
ECCENTRICITY   = .0038663
INCLINATION    = 67.9903
RA_OF_ASC_NODE = 32.2928
ARG_OF_PERICENTER = 31.9673
MEAN_ANOMALY   = 328.3810

EPHEMERIS_TYPE = 0
CLASSIFICATION_TYPE = U
NORAD_CAT_ID   = 26474
ELEMENT_SET_NO = 999
REV_AT_EPOCH   = 39335
BSTAR          = .3316E-3
MEAN_MOTION_DOT = .5302E-4
MEAN_MOTION_DDOT = 0

CCSDS_OMM_VERS = 2.0
CREATION_DATE  = 
ORIGINATOR     = 

OBJECT_NAME    = ENVISAT
OBJECT_ID      = 2002-009A
CENTER_NAME    = EARTH
REF_FRAME      = TEME
TIME_SYSTEM    = UTC
MEAN_ELEMENT_THEORY = SGP/SGP4

EPOCH          = 2026-03-12T11:19:59.847744
MEAN_MOTION    = 14.39038169
ECCENTRICITY   = .0001309
INCLINATION    = 98.3732
RA_OF_ASC_NODE = 25.0034
ARG_OF_PERICENTER = 83.1199
MEAN_ANOMALY   = 26.8150

EPHEMERIS_TYPE = 0
CLASSIFICATION_TYPE = U
NORAD_CAT_ID   = 27386
ELEMENT_SET_NO = 999
REV_AT_EPOCH   = 25957
BSTAR          = .68716E-4
MEAN_MOTION_DOT = .169E-5
MEAN_MOTION_DDOT = 0

CCSDS_OMM_VERS = 2.0
CREATION_DATE  = 
ORIGINATOR     = 

OBJECT_NAME    = IDEFIX & ARIANE 42P R/B
OBJECT_ID      = 2002-021B
CENTER_NAME    = EARTH
REF_FRAME      = TEME
TIME_SYSTEM    = UTC
MEAN_ELEMENT_THEORY = SGP/SGP4

EPOCH          = 2026-03-12T13:44:10.156992
MEAN_MOTION    = 14.31028525
ECCENTRICITY   = .0011747
INCLINATION    = 98.5870
RA_OF_ASC_NODE = 10.1441
ARG_OF_PERICENTER = 173.6441
MEAN_ANOMALY   = 186.4894

EPHEMERIS_TYPE = 0
CLASSIFICATION_TYPE = U
NORAD_CAT_ID   = 27422
ELEMENT_SET_NO = 999
REV_AT_EPOCH   = 24443
BSTAR          = .14826E-3
MEAN_MOTION_DOT = .347E-5
MEAN_MOTION_DDOT = 0

